ATLAS CENTAUR R/B       
1 06155U 72065B   25358.14813468  .00001129  00000+0  15799-3 0  9991
2 06155  35.0025  28.3690 0033215  94.9103 265.5391 14.77437332830083
SL-8 R/B                
1 08459U 75112B   25358.86476969  .00000350  00000+0  12376-3 0  9999
2 08459  74.0593 156.5552 0016690 266.6625  93.2620 14.38153703621118
SL-3 R/B                
1 10114U 77057B   25359.14185898  .00013230  00000+0  29944-3 0  9990
2 10114  97.5693 162.9556 0007282 183.5852 176.5344 15.43240799656824
SEASAT 1                
1 10967U 78064A   25358.85737389  .00000353  00000+0  13744-3 0  9993
2 10967 108.0138 328.4576 0001346 255.3230 104.7766 14.46073798495698
SL-14 R/B               
1 11267U 79011B   25358.92875205  .00000687  00000+0  65605-4 0  9992
2 11267  82.5234 167.4835 0014892 310.9929  49.0001 14.91784267517639
SL-8 R/B                
1 11574U 79089B   25359.11342819  .00000235  00000+0  79226-4 0  9993
2 11574  74.0675 229.0782 0014713  58.2897 301.9691 14.42291207425354
SL-14 R/B               
1 11672U 80005B   25359.09409550  .00000606  00000+0  58927-4 0  9992
2 11672  82.5139  17.9814 0017083  55.8573 304.4263 14.90805598465375
SL-8 R/B                
1 12139U 81003B   25359.01987946  .00018758  00000+0  49615-3 0  9992
2 12139  82.9343 358.9027 0277809  78.0827 285.1403 15.07399331303411
SL-3 R/B                
1 12465U 81046B   25359.17191668  .00011329  00000+0  28289-3 0  9997
2 12465  81.2320  19.0619 0018128 278.8988  81.0201 15.39859519426955
SL-3 R/B                
1 12904U 81103B   25359.16525013  .00006362  00000+0  29048-3 0  9998
2 12904  81.1604 300.8006 0012733 169.4340 190.7161 15.20377015961909
SL-3 R/B                
1 13068U 82013B   25359.14175907  .00004378  00000+0  19370-3 0  9994
2 13068  81.1740 248.0928 0024082  71.1751 289.2090 15.21191648393016
SL-3 R/B                
1 13154U 82039B   25359.16716440  .00003206  00000+0  19617-3 0  9996
2 13154  81.1712 301.7994 0029412 210.0040 149.9501 15.09594536370392
